[{"OBJECT_NAME":"STARLINK-4213","OBJECT_ID":"2022-062AU","EPOCH":"2026-03-09T04:06:54.722880","MEAN_MOTION":15.08848261,"ECCENTRICITY":0.00012361,"INCLINATION":53.2196,"RA_OF_ASC_NODE":16.4199,"ARG_OF_PERICENTER":90.1927,"MEAN_ANOMALY":269.9207,"EPHEMERIS_TYPE":0,"CLASSIFICATION_TYPE":"U","NORAD_CAT_ID":52872,"ELEMENT_SET_NO":999,"REV_AT_EPOCH":20598,"BSTAR":0.00019901205,"MEAN_MOTION_DOT":2.882e-5,"MEAN_MOTION_DDOT":0},{"OBJECT_NAME":"STRIX-2","OBJECT_ID":"2024-248A","EPOCH":"2026-03-09T23:00:54.819648","MEAN_MOTION":15.07630986,"ECCENTRICITY":0.00151844,"INCLINATION":97.6197,"RA_OF_ASC_NODE":25.3276,"ARG_OF_PERICENTER":319.5195,"MEAN_ANOMALY":40.4902,"EPHEMERIS_TYPE":0,"CLASSIFICATION_TYPE":"U","NORAD_CAT_ID":62406,"ELEMENT_SET_NO":999,"REV_AT_EPOCH":6663,"BSTAR":0.00066021351,"MEAN_MOTION_DOT":0.00010025,"MEAN_MOTION_DDOT":0}]
